start=new Date('2021-12-07T00:00:00.000Z').valueOf();
sats=[{"MEAN_MOTION":"15.06390207","TLE_LINE2":"2 47572  53.0564 146.8849 0002116  84.1727 275.9503 15.06390207 46744","MEAN_ELEMENT_THEORY":"SGP4","ECCENTRICITY":"0.00021160","REV_AT_EPOCH":"4674","MEAN_MOTION_DDOT":"0.0000000000000","MEAN_ANOMALY":"275.9503","REF_FRAME":"TEME","BSTAR":"0.00005807200000","SEMIMAJOR_AXIS":"6925.379","OBJECT_NAME":"STARLINK-1971","MEAN_MOTION_DOT":"0.00000583","NORAD_CAT_ID":"47572","LAUNCH_DATE":"2021-02-04","OBJECT_TYPE":"PAYLOAD","COUNTRY_CODE":"US","INCLINATION":"53.0564","EPHEMERIS_TYPE":"0","ELEMENT_SET_NO":"999","CLASSIFICATION_TYPE":"U","TIME_SYSTEM":"UTC","DECAY_DATE":null,"ARG_OF_PERICENTER":"84.1727","PERIAPSIS":"545.778","CENTER_NAME":"EARTH","EPOCH":"2021-12-06T21:20:45.356640","FILE":"3234296","RA_OF_ASC_NODE":"146.8849","PERIOD":"95.593","RCS_SIZE":"LARGE","GP_ID":"191235174","APOAPSIS":"548.709","OBJECT_ID":"2021-009AA","SITE":"AFETR","TLE_LINE1":"1 47572U 21009AA  21340.88941385  .00000583  00000-0  58072-4 0  9995"},{"SEMIMAJOR_AXIS":"6925.370","BSTAR":"0.00005169100000","REF_FRAME":"TEME","MEAN_ANOMALY":"274.1407","REV_AT_EPOCH":"4673","MEAN_MOTION_DDOT":"0.0000000000000","ECCENTRICITY":"0.00020510","MEAN_ELEMENT_THEORY":"SGP4","MEAN_MOTION":"15.06392949","TLE_LINE2":"2 47573  53.0551 146.9870 0002051  85.9816 274.1407 15.06392949 46730","ELEMENT_SET_NO":"999","EPHEMERIS_TYPE":"0","INCLINATION":"53.0551","COUNTRY_CODE":"US","OBJECT_TYPE":"PAYLOAD","LAUNCH_DATE":"2021-02-04","NORAD_CAT_ID":"47573","MEAN_MOTION_DOT":"0.00000488","OBJECT_NAME":"STARLINK-1975","PERIAPSIS":"545.815","ARG_OF_PERICENTER":"85.9816","DECAY_DATE":null,"TIME_SYSTEM":"UTC","CLASSIFICATION_TYPE":"U","TLE_LINE1":"1 47573U 21009AB  21340.86731150  .00000488  00000-0  51691-4 0  9995","OBJECT_ID":"2021-009AB","SITE":"AFETR","APOAPSIS":"548.656","RCS_SIZE":"LARGE","GP_ID":"191235925","PERIOD":"95.593","RA_OF_ASC_NODE":"146.9870","FILE":"3234296","EPOCH":"2021-12-06T20:48:55.713600","CENTER_NAME":"EARTH"},{"ELEMENT_SET_NO":"999","EPHEMERIS_TYPE":"0","COUNTRY_CODE":"US","INCLINATION":"53.0551","OBJECT_TYPE":"PAYLOAD","LAUNCH_DATE":"2021-02-04","NORAD_CAT_ID":"47574","MEAN_MOTION_DOT":"-0.00000877","OBJECT_NAME":"STARLINK-1976","SEMIMAJOR_AXIS":"6925.378","BSTAR":"-0.00003998400000","REF_FRAME":"TEME","MEAN_ANOMALY":"278.2872","REV_AT_EPOCH":"4630","MEAN_MOTION_DDOT":"0.0000000000000","ECCENTRICITY":"0.00022440","MEAN_ELEMENT_THEORY":"SGP4","TLE_LINE2":"2 47574  53.0551 177.2196 0002244  81.8371 278.2872 15.06390328 46307","MEAN_MOTION":"15.06390328","TLE_LINE1":"1 47574U 21009AC  21340.81661953 -.00000877  00000-0 -39984-4 0  9999","OBJECT_ID":"2021-009AC","SITE":"AFETR","APOAPSIS":"548.797","GP_ID":"191234673","RCS_SIZE":"LARGE","PERIOD":"95.593","RA_OF_ASC_NODE":"177.2196","FILE":"3234296","EPOCH":"2021-12-06T19:35:55.927392","CENTER_NAME":"EARTH","PERIAPSIS":"545.689","ARG_OF_PERICENTER":"81.8371","DECAY_DATE":null,"TIME_SYSTEM":"UTC","CLASSIFICATION_TYPE":"U"},{"CLASSIFICATION_TYPE":"U","TIME_SYSTEM":"UTC","ARG_OF_PERICENTER":"87.3065","DECAY_DATE":null,"PERIAPSIS":"545.707","CENTER_NAME":"EARTH","EPOCH":"2021-12-06T19:20:00.950784","FILE":"3234296","RA_OF_ASC_NODE":"177.2721","PERIOD":"95.593","RCS_SIZE":"LARGE","GP_ID":"191234423","APOAPSIS":"548.772","OBJECT_ID":"2021-009AD","SITE":"AFETR","TLE_LINE1":"1 47575U 21009AD  21340.80556656 -.00000570  00000-0 -19373-4 0  9992","MEAN_MOTION":"15.06391546","TLE_LINE2":"2 47575  53.0547 177.2721 0002213  87.3065 272.8177 15.06391546 46305","MEAN_ELEMENT_THEORY":"SGP4","ECCENTRICITY":"0.00022130","MEAN_MOTION_DDOT":"0.0000000000000","REV_AT_EPOCH":"4630","MEAN_ANOMALY":"272.8177","REF_FRAME":"TEME","BSTAR":"-0.00001937300000","SEMIMAJOR_AXIS":"6925.374","OBJECT_NAME":"STARLINK-1977","MEAN_MOTION_DOT":"-0.00000570","NORAD_CAT_ID":"47575","LAUNCH_DATE":"2021-02-04","OBJECT_TYPE":"PAYLOAD","INCLINATION":"53.0547","COUNTRY_CODE":"US","EPHEMERIS_TYPE":"0","ELEMENT_SET_NO":"999"},{"MEAN_ANOMALY":"278.0375","MEAN_MOTION_DDOT":"0.0000000000000","REV_AT_EPOCH":"4685","REF_FRAME":"TEME","BSTAR":"0.00005990200000","SEMIMAJOR_AXIS":"6925.376","TLE_LINE2":"2 47576  53.0525 137.7240 0001727  82.0810 278.0375 15.06391021 46854","MEAN_MOTION":"15.06391021","MEAN_ELEMENT_THEORY":"SGP4","ECCENTRICITY":"0.00017270","COUNTRY_CODE":"US","INCLINATION":"53.0525","LAUNCH_DATE":"2021-02-04","OBJECT_TYPE":"PAYLOAD","ELEMENT_SET_NO":"999","EPHEMERIS_TYPE":"0","OBJECT_NAME":"STARLINK-1978","MEAN_MOTION_DOT":"0.00000611","NORAD_CAT_ID":"47576","PERIAPSIS":"546.045","ARG_OF_PERICENTER":"82.0810","DECAY_DATE":null,"CLASSIFICATION_TYPE":"U","TIME_SYSTEM":"UTC","GP_ID":"191235675","RCS_SIZE":"LARGE","APOAPSIS":"548.437","PERIOD":"95.593","OBJECT_ID":"2021-009AE","SITE":"AFETR","TLE_LINE1":"1 47576U 21009AE  21340.70604045  .00000611  00000-0  59902-4 0  9994","EPOCH":"2021-12-06T16:56:41.894880","FILE":"3234296","CENTER_NAME":"EARTH","RA_OF_ASC_NODE":"137.7240"},{"APOAPSIS":"548.754","GP_ID":"191235425","RCS_SIZE":"LARGE","PERIOD":"95.593","TLE_LINE1":"1 47577U 21009AF  21340.87975541  .00000421  00000-0  47227-4 0  9991","OBJECT_ID":"2021-009AF","SITE":"AFETR","FILE":"3234296","EPOCH":"2021-12-06T21:06:50.867424","CENTER_NAME":"EARTH","RA_OF_ASC_NODE":"151.9528","PERIAPSIS":"545.765","ARG_OF_PERICENTER":"89.0058","DECAY_DATE":null,"TIME_SYSTEM":"UTC","CLASSIFICATION_TYPE":"U","INCLINATION":"53.0551","COUNTRY_CODE":"US","OBJECT_TYPE":"PAYLOAD","LAUNCH_DATE":"2021-02-04","ELEMENT_SET_NO":"999","EPHEMERIS_TYPE":"0","MEAN_MOTION_DOT":"0.00000421","OBJECT_NAME":"STARLINK-1979","NORAD_CAT_ID":"47577","MEAN_ANOMALY":"271.1178","MEAN_MOTION_DDOT":"0.0000000000000","REV_AT_EPOCH":"4667","SEMIMAJOR_AXIS":"6925.395","REF_FRAME":"TEME","BSTAR":"0.00004722700000","MEAN_ELEMENT_THEORY":"SGP4","MEAN_MOTION":"15.06384895","TLE_LINE2":"2 47577  53.0551 151.9528 0002158  89.0058 271.1178 15.06384895 46677","ECCENTRICITY":"0.00021580"},{"EPHEMERIS_TYPE":"0","ELEMENT_SET_NO":"999","LAUNCH_DATE":"2021-02-04","OBJECT_TYPE":"PAYLOAD","INCLINATION":"53.0544","COUNTRY_CODE":"US","NORAD_CAT_ID":"47578","OBJECT_NAME":"STARLINK-1980","MEAN_MOTION_DOT":"0.00000742","BSTAR":"0.00006869300000","REF_FRAME":"TEME","SEMIMAJOR_AXIS":"6925.350","MEAN_MOTION_DDOT":"0.0000000000000","REV_AT_EPOCH":"4649","MEAN_ANOMALY":"270.3577","ECCENTRICITY":"0.00021460","TLE_LINE2":"2 47578  53.0544 159.9398 0002146  89.7658 270.3577 15.06399443 46492","MEAN_MOTION":"15.06399443","MEAN_ELEMENT_THEORY":"SGP4","SITE":"AFETR","OBJECT_ID":"2021-009AG","TLE_LINE1":"1 47578U 21009AG  21340.21027972  .00000742  00000-0  68693-4 0  9992","PERIOD":"95.592","RCS_SIZE":"LARGE","GP_ID":"191205571","APOAPSIS":"548.701","RA_OF_ASC_NODE":"159.9398","CENTER_NAME":"EARTH","EPOCH":"2021-12-06T05:02:48.167808","FILE":"3234035","DECAY_DATE":null,"ARG_OF_PERICENTER":"89.7658","PERIAPSIS":"545.729","CLASSIFICATION_TYPE":"U","TIME_SYSTEM":"UTC"},{"MEAN_ANOMALY":"274.8645","REV_AT_EPOCH":"4673","MEAN_MOTION_DDOT":"0.0000000000000","SEMIMAJOR_AXIS":"6925.375","REF_FRAME":"TEME","BSTAR":"-0.00007792000000","MEAN_ELEMENT_THEORY":"SGP4","MEAN_MOTION":"15.06391478","TLE_LINE2":"2 47579  53.0548 147.0440 0002114  85.2585 274.8645 15.06391478 46730","ECCENTRICITY":"0.00021140","INCLINATION":"53.0548","COUNTRY_CODE":"US","OBJECT_TYPE":"PAYLOAD","LAUNCH_DATE":"2021-02-04","ELEMENT_SET_NO":"999","EPHEMERIS_TYPE":"0","MEAN_MOTION_DOT":"-0.00001442","OBJECT_NAME":"STARLINK-1981","NORAD_CAT_ID":"47579","PERIAPSIS":"545.776","DECAY_DATE":null,"ARG_OF_PERICENTER":"85.2585","TIME_SYSTEM":"UTC","CLASSIFICATION_TYPE":"U","APOAPSIS":"548.704","GP_ID":"191234924","RCS_SIZE":"LARGE","PERIOD":"95.593","TLE_LINE1":"1 47579U 21009AH  21340.85624205 -.00001442  00000-0 -77920-4 0  9998","OBJECT_ID":"2021-009AH","SITE":"AFETR","FILE":"3234296","EPOCH":"2021-12-06T20:32:59.313120","CENTER_NAME":"EARTH","RA_OF_ASC_NODE":"147.0440"},{"BSTAR":"-0.00006659000000","REF_FRAME":"TEME","SEMIMAJOR_AXIS":"6925.384","MEAN_ANOMALY":"278.2914","MEAN_MOTION_DDOT":"0.0000000000000","REV_AT_EPOCH":"4659","ECCENTRICITY":"0.00020860","TLE_LINE2":"2 47580  53.0551 156.9390 0002086  81.8312 278.2914 15.06388430 46592","MEAN_MOTION":"15.06388430","MEAN_ELEMENT_THEORY":"SGP4","ELEMENT_SET_NO":"999","EPHEMERIS_TYPE":"0","INCLINATION":"53.0551","COUNTRY_CODE":"US","LAUNCH_DATE":"2021-02-04","OBJECT_TYPE":"PAYLOAD","NORAD_CAT_ID":"47580","OBJECT_NAME":"STARLINK-1982","MEAN_MOTION_DOT":"-0.00001273","PERIAPSIS":"545.804","DECAY_DATE":null,"ARG_OF_PERICENTER":"81.8312","CLASSIFICATION_TYPE":"U","TIME_SYSTEM":"UTC","OBJECT_ID":"2021-009AJ","SITE":"AFETR","TLE_LINE1":"1 47580U 21009AJ  21340.87744034 -.00001273  00000-0 -66590-4 0  9998","RCS_SIZE":"LARGE","GP_ID":"191235175","APOAPSIS":"548.694","PERIOD":"95.593","RA_OF_ASC_NODE":"156.9390","EPOCH":"2021-12-06T21:03:30.845376","FILE":"3234296","CENTER_NAME":"EARTH"},{"APOAPSIS":"548.607","RCS_SIZE":"LARGE","GP_ID":"191235926","PERIOD":"95.592","TLE_LINE1":"1 47581U 21009AK  21340.72447928  .00000572  00000-0  57303-4 0  9996","OBJECT_ID":"2021-009AK","SITE":"AFETR","FILE":"3234296","EPOCH":"2021-12-06T17:23:15.009792","CENTER_NAME":"EARTH","RA_OF_ASC_NODE":"137.6351","PERIAPSIS":"545.847","DECAY_DATE":null,"ARG_OF_PERICENTER":"92.8458","TIME_SYSTEM":"UTC","CLASSIFICATION_TYPE":"U","COUNTRY_CODE":"US","INCLINATION":"53.0555","OBJECT_TYPE":"PAYLOAD","LAUNCH_DATE":"2021-02-04","ELEMENT_SET_NO":"999","EPHEMERIS_TYPE":"0","MEAN_MOTION_DOT":"0.00000572","OBJECT_NAME":"STARLINK-1984","NORAD_CAT_ID":"47581","MEAN_ANOMALY":"267.2759","MEAN_MOTION_DDOT":"0.0000000000000","REV_AT_EPOCH":"4685","SEMIMAJOR_AXIS":"6925.362","REF_FRAME":"TEME","BSTAR":"0.00005730300000","MEAN_ELEMENT_THEORY":"SGP4","TLE_LINE2":"2 47581  53.0555 137.6351 0001992  92.8458 267.2759 15.06395617 46857","MEAN_MOTION":"15.06395617","ECCENTRICITY":"0.00019920"}];
